{"type": "FeatureCollection", "features": [ {"type": "Feature", "properties": {"norad_id": 34736, "name": "COSMOS 2251 DEB", "group": "cosmos-2251-debris", "lat": -16.48260474326205, "lon": 46.17268644618351, "alt_km": 435.96898835526645, "timestamp": "2025-12-05T22:40:48.945195+00:00", "meta": {"OBJECT_NAME": "COSMOS 2251 DEB", "OBJECT_ID": "1993-036ZE", "EPOCH": "2025-12-05T07:10:26.033952", "MEAN_MOTION": 15.40801848, "ECCENTRICITY": 0.0016035, "INCLINATION": 74.0038, "RA_OF_ASC_NODE": 52.4425, "ARG_OF_PERICENTER": 353.6055, "MEAN_ANOMALY": 6.4946, "EPHEMERIS_TYPE": 0, "CLASSIFICATION_TYPE": "U", "NORAD_CAT_ID": 34736, "ELEMENT_SET_NO": 999, "REV_AT_EPOCH": 88333, "BSTAR": 0.010004666, "MEAN_MOTION_DOT": 0.00435541, "MEAN_MOTION_DDOT": 0}, "tle": {"line1": "1 34736U 93036ZE  25339.29891243  .00435541  00000+0  10005-1 0  9992", "line2": "2 34736  74.0038  52.4425 0016035 353.6055   6.4946 15.40801848883334"}}, "geometry": {"type": "Point", "coordinates": [46.17268644618351, -16.48260474326205]}}, {"type": "Feature", "properties": {"norad_id": 34738, "name": "COSMOS 2251 DEB", "group": "cosmos-2251-debris", "lat": 52.203693354965836, "lon": -45.726650261538886, "alt_km": 766.1853094385388, "timestamp": "2025-12-05T22:40:48.945205+00:00", "meta": {"OBJECT_NAME": "COSMOS 2251 DEB", "OBJECT_ID": "1993-036ZG", "EPOCH": "2025-12-05T06:22:11.132832", "MEAN_MOTION": 14.46274576, "ECCENTRICITY": 0.00471784, "INCLINATION": 74.0141, "RA_OF_ASC_NODE": 157.2351, "ARG_OF_PERICENTER": 304.9288, "MEAN_ANOMALY": 242.7453, "EPHEMERIS_TYPE": 0, "CLASSIFICATION_TYPE": "U", "NORAD_CAT_ID": 34738, "ELEMENT_SET_NO": 999, "REV_AT_EPOCH": 87750, "BSTAR": 0.00051827127, "MEAN_MOTION_DOT": 1.855e-05, "MEAN_MOTION_DDOT": 0}, "tle": {"line1": "1 34738U 93036ZG  25339.26540663  .00001855  00000+0  51827-3 0  9994", "line2": "2 34738  74.0141 157.2351 0047178 304.9288 242.7453 14.46274576877509"}}, "geometry": {"type": "Point", "coordinates": [-45.726650261538886, 52.203693354965836]}}, {"type": "Feature", "properties": {"norad_id": 34750, "name": "COSMOS 2251 DEB", "group": "cosmos-2251-debris", "lat": -72.72119835911813, "lon": 148.35800784731993, "alt_km": 704.0147908247791, "timestamp": "2025-12-05T22:40:48.945216+00:00", "meta": {"OBJECT_NAME": "COSMOS 2251 DEB", "OBJECT_ID": "1993-036ZU", "EPOCH": "2025-12-04T19:40:34.190688", "MEAN_MOTION": 14.61202682, "ECCENTRICITY": 0.00392385, "INCLINATION": 74.1084, "RA_OF_ASC_NODE": 216.8272, "ARG_OF_PERICENTER": 172.6385, "MEAN_ANOMALY": 307.419, "EPHEMERIS_TYPE": 0, "CLASSIFICATION_TYPE": "U", "NORAD_CAT_ID": 34750, "ELEMENT_SET_NO": 999, "REV_AT_EPOCH": 88115, "BSTAR": 0.0024612458, "MEAN_MOTION_DOT": 0.00012252, "MEAN_MOTION_DDOT": 0}, "tle": {"line1": "1 34750U 93036ZU  25338.81984017  .00012252  00000+0  24612-2 0  9997", "line2": "2 34750  74.1084 216.8272 0039238 172.6385 307.4190 14.61202682881159"}}, "geometry": {"type": "Point", "coordinates": [148.35800784731993, -72.72119835911813]}}, {"type": "Feature", "properties": {"norad_id": 34752, "name": "COSMOS 2251 DEB", "group": "cosmos-2251-debris", "lat": -15.29006875516445, "lon": -161.07089497152464, "alt_km": 550.8135704313372, "timestamp": "2025-12-05T22:40:48.945226+00:00", "meta": {"OBJECT_NAME": "COSMOS 2251 DEB", "OBJECT_ID": "1993-036ZW", "EPOCH": "2025-12-03T20:10:49.058112", "MEAN_MOTION": 14.99598004, "ECCENTRICITY": 0.0048352, "INCLINATION": 74.0141, "RA_OF_ASC_NODE": 18.7121, "ARG_OF_PERICENTER": 150.1715, "MEAN_ANOMALY": 210.2244, "EPHEMERIS_TYPE": 0, "CLASSIFICATION_TYPE": "U", "NORAD_CAT_ID": 34752, "ELEMENT_SET_NO": 999, "REV_AT_EPOCH": 89716, "BSTAR": 0.0018247474, "MEAN_MOTION_DOT": 0.00023054, "MEAN_MOTION_DDOT": 0}, "tle": {"line1": "1 34752U 93036ZW  25337.84084558  .00023054  00000+0  18247-2 0  9991", "line2": "2 34752  74.0141  18.7121 0048352 150.1715 210.2244 14.99598004897167"}}, "geometry": {"type": "Point", "coordinates": [-161.07089497152464, -15.29006875516445]}}, {"type": "Feature", "properties": {"norad_id": 34754, "name": "COSMOS 2251 DEB", "group": "cosmos-2251-debris", "lat": 0.5669675125896045, "lon": 60.008368297200526, "alt_km": 780.357127092967, "timestamp": "2025-12-05T22:40:48.945236+00:00", "meta": {"OBJECT_NAME": "COSMOS 2251 DEB", "OBJECT_ID": "1993-036ZY", "EPOCH": "2025-12-05T04:12:41.491008", "MEAN_MOTION": 14.40464577, "ECCENTRICITY": 0.00292428, "INCLINATION": 74.0306, "RA_OF_ASC_NODE": 241.5936, "ARG_OF_PERICENTER": 359.1888, "MEAN_ANOMALY": 151.1899, "EPHEMERIS_TYPE": 0, "CLASSIFICATION_TYPE": "U", "NORAD_CAT_ID": 34754, "ELEMENT_SET_NO": 999, "REV_AT_EPOCH": 88024, "BSTAR": 0.00042942896, "MEAN_MOTION_DOT": 1.346e-05, "MEAN_MOTION_DDOT": 0}, "tle": {"line1": "1 34754U 93036ZY  25339.17548022  .00001346  00000+0  42943-3 0  9993", "line2": "2 34754  74.0306 241.5936 0029242 359.1888 151.1899 14.40464577880244"}}, "geometry": {"type": "Point", "coordinates": [60.008368297200526, 0.5669675125896045]}}, {"type": "Feature", "properties": {"norad_id": 34755, "name": "COSMOS 2251 DEB", "group": "cosmos-2251-debris", "lat": -33.00048512488288, "lon": -69.83935313648638, "alt_km": 772.6028009463662, "timestamp": "2025-12-05T22:40:48.945247+00:00", "meta": {"OBJECT_NAME": "COSMOS 2251 DEB", "OBJECT_ID": "1993-036ZZ", "EPOCH": "2025-11-28T15:26:25.154880", "MEAN_MOTION": 13.50483978, "ECCENTRICITY": 0.04082229, "INCLINATION": 73.9254, "RA_OF_ASC_NODE": 312.682, "ARG_OF_PERICENTER": 334.9897, "MEAN_ANOMALY": 144.2013, "EPHEMERIS_TYPE": 0, "CLASSIFICATION_TYPE": "U", "NORAD_CAT_ID": 34755, "ELEMENT_SET_NO": 999, "REV_AT_EPOCH": 82333, "BSTAR": 0.001766679, "MEAN_MOTION_DOT": 1.881e-05, "MEAN_MOTION_DDOT": 0}, "tle": {"line1": "1 34755U 93036ZZ  25332.64334670  .00001881  00000+0  17667-2 0  9999", "line2": "2 34755  73.9254 312.6820 0408222 334.9897 144.2013 13.50483978823331"}}, "geometry": {"type": "Point", "coordinates": [-69.83935313648638, -33.00048512488288]}}, {"type": "Feature", "properties": {"norad_id": 34756, "name": "COSMOS 2251 DEB", "group": "cosmos-2251-debris", "lat": -2.9018582168291114, "lon": -63.6223399892235, "alt_km": 1262.8703067343467, "timestamp": "2025-12-05T22:40:48.945257+00:00", "meta": {"OBJECT_NAME": "COSMOS 2251 DEB", "OBJECT_ID": "1993-036AAA", "EPOCH": "2025-12-02T16:31:05.981088", "MEAN_MOTION": 13.67210106, "ECCENTRICITY": 0.0344553, "INCLINATION": 74.0021, "RA_OF_ASC_NODE": 120.8981, "ARG_OF_PERICENTER": 358.9057, "MEAN_ANOMALY": 1.1264, "EPHEMERIS_TYPE": 0, "CLASSIFICATION_TYPE": "U", "NORAD_CAT_ID": 34756, "ELEMENT_SET_NO": 999, "REV_AT_EPOCH": 83284, "BSTAR": 0.0010550911, "MEAN_MOTION_DOT": 1.312e-05, "MEAN_MOTION_DDOT": 0}, "tle": {"line1": "1 34756U 93036AAA 25336.68826367  .00001312  00000+0  10551-2 0  9991", "line2": "2 34756  74.0021 120.8981 0344553 358.9057   1.1264 13.67210106832847"}}, "geometry": {"type": "Point", "coordinates": [-63.6223399892235, -2.9018582168291114]}}, {"type": "Feature", "properties": {"norad_id": 34758, "name": "COSMOS 2251 DEB", "group": "cosmos-2251-debris", "lat": 14.37100377212179, "lon": 126.24615283101846, "alt_km": 1028.3069094162483, "timestamp": "2025-12-05T22:40:48.945267+00:00", "meta": {"OBJECT_NAME": "COSMOS 2251 DEB", "OBJECT_ID": "1993-036AAC", "EPOCH": "2025-12-04T15:51:30.235104", "MEAN_MOTION": 13.58035438, "ECCENTRICITY": 0.03807228, "INCLINATION": 74.1071, "RA_OF_ASC_NODE": 312.4982, "ARG_OF_PERICENTER": 78.1629, "MEAN_ANOMALY": 286.1911, "EPHEMERIS_TYPE": 0, "CLASSIFICATION_TYPE": "U", "NORAD_CAT_ID": 34758, "ELEMENT_SET_NO": 999, "REV_AT_EPOCH": 82800, "BSTAR": 0.0016070866, "MEAN_MOTION_DOT": 1.847e-05, "MEAN_MOTION_DDOT": 0}, "tle": {"line1": "1 34758U 93036AAC 25338.66076661  .00001847  00000+0  16071-2 0  9993", "line2": "2 34758  74.1071 312.4982 0380722  78.1629 286.1911 13.58035438828009"}}, "geometry": {"type": "Point", "coordinates": [126.24615283101846, 14.37100377212179]}}, {"type": "Feature", "properties": {"norad_id": 34760, "name": "COSMOS 2251 DEB", "group": "cosmos-2251-debris", "lat": -12.319509957026805, "lon": -49.08998992202537, "alt_km": 766.0805696030475, "timestamp": "2025-12-05T22:40:48.945278+00:00", "meta": {"OBJECT_NAME": "COSMOS 2251 DEB", "OBJECT_ID": "1993-036AAE", "EPOCH": "2025-12-02T15:48:08.179200", "MEAN_MOTION": 14.19524364, "ECCENTRICITY": 0.00962533, "INCLINATION": 74.0627, "RA_OF_ASC_NODE": 320.3503, "ARG_OF_PERICENTER": 14.8263, "MEAN_ANOMALY": 104.0636, "EPHEMERIS_TYPE": 0, "CLASSIFICATION_TYPE": "U", "NORAD_CAT_ID": 34760, "ELEMENT_SET_NO": 999, "REV_AT_EPOCH": 86545, "BSTAR": 0.00087310198, "MEAN_MOTION_DOT": 1.903e-05, "MEAN_MOTION_DDOT": 0}, "tle": {"line1": "1 34760U 93036AAE 25336.65842800  .00001903  00000+0  87310-3 0  9997", "line2": "2 34760  74.0627 320.3503 0096253  14.8263 104.0636 14.19524364865450"}}, "geometry": {"type": "Point", "coordinates": [-49.08998992202537, -12.319509957026805]}}, {"type": "Feature", "properties": {"norad_id": 34761, "name": "COSMOS 2251 DEB", "group": "cosmos-2251-debris", "lat": 3.3156728423905943, "lon": -165.63477150187168, "alt_km": 781.840607001951, "timestamp": "2025-12-05T22:40:48.945288+00:00", "meta": {"OBJECT_NAME": "COSMOS 2251 DEB", "OBJECT_ID": "1993-036AAF", "EPOCH": "2025-12-03T11:25:40.179072", "MEAN_MOTION": 14.37997313, "ECCENTRICITY": 0.00360917, "INCLINATION": 74.03, "RA_OF_ASC_NODE": 19.8628, "ARG_OF_PERICENTER": 56.9515, "MEAN_ANOMALY": 303.5096, "EPHEMERIS_TYPE": 0, "CLASSIFICATION_TYPE": "U", "NORAD_CAT_ID": 34761, "ELEMENT_SET_NO": 999, "REV_AT_EPOCH": 87516, "BSTAR": 0.00082876209, "MEAN_MOTION_DOT": 2.5e-05, "MEAN_MOTION_DDOT": 0}, "tle": {"line1": "1 34761U 93036AAF 25337.47615948  .00002500  00000+0  82876-3 0  9996", "line2": "2 34761  74.0300  19.8628 0036091  56.9515 303.5096 14.37997313875161"}}, "geometry": {"type": "Point", "coordinates": [-165.63477150187168, 3.3156728423905943]}}]}